[{"OBJECT_NAME":"STARLINK-5233","OBJECT_ID":"2022-141D","EPOCH":"2026-01-04T23:57:22.531680","MEAN_MOTION":15.08837856,"ECCENTRICITY":0.00011736,"INCLINATION":53.217,"RA_OF_ASC_NODE":255.0131,"ARG_OF_PERICENTER":90.6254,"MEAN_ANOMALY":269.4873,"EPHEMERIS_TYPE":0,"CLASSIFICATION_TYPE":"U","NORAD_CAT_ID":54160,"ELEMENT_SET_NO":999,"REV_AT_EPOCH":17673,"BSTAR":8.9752364e-5,"MEAN_MOTION_DOT":1.141e-5,"MEAN_MOTION_DDOT":0},{"OBJECT_NAME":"STARLINK-5269","OBJECT_ID":"2022-141E","EPOCH":"2026-01-05T05:13:25.182048","MEAN_MOTION":15.08836674,"ECCENTRICITY":0.0001559,"INCLINATION":53.2204,"RA_OF_ASC_NODE":299.1638,"ARG_OF_PERICENTER":97.3595,"MEAN_ANOMALY":262.7574,"EPHEMERIS_TYPE":0,"CLASSIFICATION_TYPE":"U","NORAD_CAT_ID":54161,"ELEMENT_SET_NO":999,"REV_AT_EPOCH":17613,"BSTAR":2.0562e-5,"MEAN_MOTION_DOT":3.9e-7,"MEAN_MOTION_DDOT":0},{"OBJECT_NAME":"STARLINK-5273","OBJECT_ID":"2022-141F","EPOCH":"2026-01-05T05:01:25.926240","MEAN_MOTION":15.08836527,"ECCENTRICITY":0.0001445,"INCLINATION":53.2178,"RA_OF_ASC_NODE":299.1109,"ARG_OF_PERICENTER":95.8642,"MEAN_ANOMALY":264.2515,"EPHEMERIS_TYPE":0,"CLASSIFICATION_TYPE":"U","NORAD_CAT_ID":54162,"ELEMENT_SET_NO":999,"REV_AT_EPOCH":17613,"BSTAR":1.1818e-5,"MEAN_MOTION_DOT":-1.0e-6,"MEAN_MOTION_DDOT":0},{"OBJECT_NAME":"STARLINK-5161","OBJECT_ID":"2022-141G","EPOCH":"2026-01-05T03:43:18.032448","MEAN_MOTION":15.08831967,"ECCENTRICITY":0.00014662,"INCLINATION":53.2175,"RA_OF_ASC_NODE":289.5086,"ARG_OF_PERICENTER":78.7462,"MEAN_ANOMALY":281.3695,"EPHEMERIS_TYPE":0,"CLASSIFICATION_TYPE":"U","NORAD_CAT_ID":54163,"ELEMENT_SET_NO":999,"REV_AT_EPOCH":17626,"BSTAR":2.096582e-6,"MEAN_MOTION_DOT":-2.55e-6,"MEAN_MOTION_DDOT":0},{"OBJECT_NAME":"STARLINK-5278","OBJECT_ID":"2022-141H","EPOCH":"2026-01-05T05:24:00.411264","MEAN_MOTION":15.08814367,"ECCENTRICITY":0.0001529,"INCLINATION":53.2192,"RA_OF_ASC_NODE":289.2346,"ARG_OF_PERICENTER":100.7553,"MEAN_ANOMALY":259.3612,"EPHEMERIS_TYPE":0,"CLASSIFICATION_TYPE":"U","NORAD_CAT_ID":54164,"ELEMENT_SET_NO":999,"REV_AT_EPOCH":17627,"BSTAR":0.00026878,"MEAN_MOTION_DOT":3.989e-5,"MEAN_MOTION_DDOT":0},{"OBJECT_NAME":"STARLINK-5279","OBJECT_ID":"2022-141J","EPOCH":"2026-01-05T01:45:21.712608","MEAN_MOTION":15.08829044,"ECCENTRICITY":0.00013495,"INCLINATION":53.2174,"RA_OF_ASC_NODE":299.6857,"ARG_OF_PERICENTER":81.0668,"MEAN_ANOMALY":279.0477,"EPHEMERIS_TYPE":0,"CLASSIFICATION_TYPE":"U","NORAD_CAT_ID":54165,"ELEMENT_SET_NO":999,"REV_AT_EPOCH":17611,"BSTAR":-4.2830141e-5,"MEAN_MOTION_DOT":-9.69e-6,"MEAN_MOTION_DDOT":0},{"OBJECT_NAME":"STARLINK-5280","OBJECT_ID":"2022-141K","EPOCH":"2026-01-05T03:37:59.542176","MEAN_MOTION":15.08831984,"ECCENTRICITY":0.00013365,"INCLINATION":53.2186,"RA_OF_ASC_NODE":289.4862,"ARG_OF_PERICENTER":101.699,"MEAN_ANOMALY":258.4152,"EPHEMERIS_TYPE":0,"CLASSIFICATION_TYPE":"U","NORAD_CAT_ID":54166,"ELEMENT_SET_NO":999,"REV_AT_EPOCH":17626,"BSTAR":2.521622e-6,"MEAN_MOTION_DOT":-2.48e-6,"MEAN_MOTION_DDOT":0},{"OBJECT_NAME":"STARLINK-5243","OBJECT_ID":"2022-141L","EPOCH":"2026-01-05T04:29:35.649888","MEAN_MOTION":15.0883345,"ECCENTRICITY":0.0001628,"INCLINATION":53.2212,"RA_OF_ASC_NODE":298.9766,"ARG_OF_PERICENTER":88.1138,"MEAN_ANOMALY":272.0041,"EPHEMERIS_TYPE":0,"CLASSIFICATION_TYPE":"U","NORAD_CAT_ID":54167,"ELEMENT_SET_NO":999,"REV_AT_EPOCH":17613,"BSTAR":0.00010385,"MEAN_MOTION_DOT":1.365e-5,"MEAN_MOTION_DDOT":0},{"OBJECT_NAME":"STARLINK-5245","OBJECT_ID":"2022-141M","EPOCH":"2026-01-05T01:57:17.956512","MEAN_MOTION":15.08833677,"ECCENTRICITY":0.000122,"INCLINATION":53.2181,"RA_OF_ASC_NODE":289.7602,"ARG_OF_PERICENTER":89.8535,"MEAN_ANOMALY":270.2597,"EPHEMERIS_TYPE":0,"CLASSIFICATION_TYPE":"U","NORAD_CAT_ID":54168,"ELEMENT_SET_NO":999,"REV_AT_EPOCH":17625,"BSTAR":-3.063778e-6,"MEAN_MOTION_DOT":-3.37e-6,"MEAN_MOTION_DDOT":0},{"OBJECT_NAME":"STARLINK-5282","OBJECT_ID":"2022-141N","EPOCH":"2026-01-05T03:53:46.870656","MEAN_MOTION":15.08832408,"ECCENTRICITY":0.00014059,"INCLINATION":53.2183,"RA_OF_ASC_NODE":288.8585,"ARG_OF_PERICENTER":92.5983,"MEAN_ANOMALY":267.517,"EPHEMERIS_TYPE":0,"CLASSIFICATION_TYPE":"U","NORAD_CAT_ID":54169,"ELEMENT_SET_NO":999,"REV_AT_EPOCH":17627,"BSTAR":-7.7358695e-5,"MEAN_MOTION_DOT":-1.519e-5,"MEAN_MOTION_DDOT":0},{"OBJECT_NAME":"STARLINK-5155","OBJECT_ID":"2022-141P","EPOCH":"2026-01-05T01:51:59.207904","MEAN_MOTION":15.08838931,"ECCENTRICITY":0.00012784,"INCLINATION":53.2169,"RA_OF_ASC_NODE":289.737,"ARG_OF_PERICENTER":90.2334,"MEAN_ANOMALY":269.8804,"EPHEMERIS_TYPE":0,"CLASSIFICATION_TYPE":"U","NORAD_CAT_ID":54170,"ELEMENT_SET_NO":999,"REV_AT_EPOCH":17625,"BSTAR":0.00013231176,"MEAN_MOTION_DOT":1.818e-5,"MEAN_MOTION_DDOT":0},{"OBJECT_NAME":"STARLINK-5117","OBJECT_ID":"2022-141R","EPOCH":"2026-01-05T04:52:09.058368","MEAN_MOTION":15.08833564,"ECCENTRICITY":0.0001212,"INCLINATION":53.2178,"RA_OF_ASC_NODE":289.0962,"ARG_OF_PERICENTER":90.8247,"MEAN_ANOMALY":269.2884,"EPHEMERIS_TYPE":0,"CLASSIFICATION_TYPE":"U","NORAD_CAT_ID":54172,"ELEMENT_SET_NO":999,"REV_AT_EPOCH":17627,"BSTAR":3.6013e-6,"MEAN_MOTION_DOT":-2.31e-6,"MEAN_MOTION_DDOT":0},{"OBJECT_NAME":"STARLINK-5242","OBJECT_ID":"2022-141S","EPOCH":"2026-01-05T03:59:05.509536","MEAN_MOTION":15.08835851,"ECCENTRICITY":0.00012235,"INCLINATION":53.2186,"RA_OF_ASC_NODE":288.8712,"ARG_OF_PERICENTER":81.4691,"MEAN_ANOMALY":278.644,"EPHEMERIS_TYPE":0,"CLASSIFICATION_TYPE":"U","NORAD_CAT_ID":54173,"ELEMENT_SET_NO":999,"REV_AT_EPOCH":17627,"BSTAR":-3.8610407e-5,"MEAN_MOTION_DOT":-9.02e-6,"MEAN_MOTION_DDOT":0},{"OBJECT_NAME":"STARLINK-5248","OBJECT_ID":"2022-141T","EPOCH":"2026-01-05T15:16:46.959168","MEAN_MOTION":15.08818679,"ECCENTRICITY":0.0001781,"INCLINATION":53.2151,"RA_OF_ASC_NODE":231.9167,"ARG_OF_PERICENTER":93.7343,"MEAN_ANOMALY":266.3853,"EPHEMERIS_TYPE":0,"CLASSIFICATION_TYPE":"U","NORAD_CAT_ID":54174,"ELEMENT_SET_NO":999,"REV_AT_EPOCH":17711,"BSTAR":-0.00020239347,"MEAN_MOTION_DOT":-3.506e-5,"MEAN_MOTION_DDOT":0},{"OBJECT_NAME":"STARLINK-5256","OBJECT_ID":"2022-141U","EPOCH":"2026-01-05T04:57:27.864000","MEAN_MOTION":15.0882871,"ECCENTRICITY":0.0001367,"INCLINATION":53.2175,"RA_OF_ASC_NODE":289.1168,"ARG_OF_PERICENTER":102.7588,"MEAN_ANOMALY":257.3556,"EPHEMERIS_TYPE":0,"CLASSIFICATION_TYPE":"U","NORAD_CAT_ID":54175,"ELEMENT_SET_NO":999,"REV_AT_EPOCH":17627,"BSTAR":-6.6856e-5,"MEAN_MOTION_DOT":-1.351e-5,"MEAN_MOTION_DDOT":0},{"OBJECT_NAME":"STARLINK-5154","OBJECT_ID":"2022-141V","EPOCH":"2026-01-05T01:25:27.960960","MEAN_MOTION":15.08829733,"ECCENTRICITY":0.00016345,"INCLINATION":53.2208,"RA_OF_ASC_NODE":289.6259,"ARG_OF_PERICENTER":84.9892,"MEAN_ANOMALY":275.1286,"EPHEMERIS_TYPE":0,"CLASSIFICATION_TYPE":"U","NORAD_CAT_ID":54176,"ELEMENT_SET_NO":999,"REV_AT_EPOCH":17625,"BSTAR":2.7306885e-5,"MEAN_MOTION_DOT":1.46e-6,"MEAN_MOTION_DDOT":0}]
