STARLINK-5233           
1 54160U 22141D   26004.99817745  .00001141  00000+0  89752-4 0  9999
2 54160  53.2170 255.0131 0001173  90.6254 269.4873 15.08837856176735
STARLINK-5269           
1 54161U 22141E   26005.21765257  .00000039  00000+0  20562-4 0  9995
2 54161  53.2204 299.1638 0001559  97.3595 262.7574 15.08836674176130
STARLINK-5273           
1 54162U 22141F   26005.20932785 -.00000100  00000+0  11818-4 0  9991
2 54162  53.2178 299.1109 0001445  95.8642 264.2515 15.08836527176133
STARLINK-5161           
1 54163U 22141G   26005.15506982 -.00000255  00000+0  20966-5 0  9998
2 54163  53.2175 289.5086 0001466  78.7462 281.3695 15.08831967176267
STARLINK-5278           
1 54164U 22141H   26005.22500476  .00003989  00000+0  26878-3 0  9991
2 54164  53.2192 289.2346 0001529 100.7553 259.3612 15.08814367176270
STARLINK-5279           
1 54165U 22141J   26005.07316797 -.00000969  00000+0 -42830-4 0  9990
2 54165  53.2174 299.6857 0001349  81.0668 279.0477 15.08829044176110
STARLINK-5280           
1 54166U 22141K   26005.15138359 -.00000248  00000+0  25216-5 0  9995
2 54166  53.2186 289.4862 0001336 101.6990 258.4152 15.08831984176263
STARLINK-5243           
1 54167U 22141L   26005.18721817  .00001365  00000+0  10385-3 0  9995
2 54167  53.2212 298.9766 0001628  88.1138 272.0041 15.08833450176134
STARLINK-5245           
1 54168U 22141M   26005.08145783 -.00000337  00000+0 -30638-5 0  9992
2 54168  53.2181 289.7602 0001220  89.8535 270.2597 15.08833677176254
STARLINK-5282           
1 54169U 22141N   26005.16234804 -.00001519  00000+0 -77359-4 0  9998
2 54169  53.2183 288.8585 0001405  92.5983 267.5170 15.08832408176279
STARLINK-5155           
1 54170U 22141P   26005.07776861  .00001818  00000+0  13231-3 0  9992
2 54170  53.2169 289.7370 0001278  90.2334 269.8804 15.08838931176254
STARLINK-5117           
1 54172U 22141R   26005.20288262 -.00000231  00000+0  36013-5 0  9996
2 54172  53.2178 289.0962 0001212  90.8247 269.2884 15.08833564176274
STARLINK-5242           
1 54173U 22141S   26005.16603599 -.00000902  00000+0 -38610-4 0  9996
2 54173  53.2186 288.8712 0001223  81.4691 278.6440 15.08835851176278
STARLINK-5248           
1 54174U 22141T   26005.63665462 -.00003506  00000+0 -20239-3 0  9996
2 54174  53.2151 231.9167 0001781  93.7343 266.3853 15.08818679177118
STARLINK-5256           
1 54175U 22141U   26005.20657250 -.00001351  00000+0 -66856-4 0  9998
2 54175  53.2175 289.1168 0001367 102.7588 257.3556 15.08828710176276
STARLINK-5154           
1 54176U 22141V   26005.05935140  .00000146  00000+0  27307-4 0  9996
2 54176  53.2208 289.6259 0001634  84.9892 275.1286 15.08829733176258
